NORAD_CAT_ID,OBJECT_NAME,OBJECT_TYPE,EPOCH,MEAN_MOTION,ECCENTRICITY,INCLINATION,RA_OF_ASC_NODE,ARG_OF_PERICENTER,MEAN_ANOMALY,BSTAR,MEAN_MOTION_DOT,MEAN_MOTION_DDOT,TLE_LINE0,TLE_LINE1,TLE_LINE2,SEMIMAJOR_AXIS,PERIOD,APOGEE,PERIGEE,DECAYED
53744.0,STARLINK-4670,PAYLOAD,2022-12-23 10:30:35,15.08848073,0.0001541999999999,53.2174,126.5222,49.0342,311.0783,0.00059049,9.124e-05,0.0,0 STARLINK-4670,1 53744U 22107AW  22357.43791483  .00009124  00000-0  59049-3 0  9999,2 53744  53.2174 126.5222 0001542  49.0342 311.0783 15.08848073 17624,6917.856,95.437,540.7869999999998,538.654,0.0
53744.0,STARLINK-4670,PAYLOAD,2022-12-23 18:27:31,15.08851966,0.000169,53.2177,125.0369,44.4106,315.7021,0.00046931,7.191e-05,0.0,0 STARLINK-4670,1 53744U 22107AW  22357.76911376  .00007191  00000-0  46931-3 0  9998,2 53744  53.2177 125.0369 0001690  44.4106 315.7021 15.08851966 17670,6917.844,95.437,540.878,538.54,0.0
53744.0,STARLINK-4670,PAYLOAD,2022-12-24 03:59:50,15.08852794,0.000179,53.2178,123.253,42.9668,317.1464,0.00032751,4.93e-05,0.0,0 STARLINK-4670,1 53744U 22107AW  22358.16655093  .00004930  00000-0  32751-3 0  9997,2 53744  53.2178 123.2530 0001790  42.9668 317.1464 15.08852794 16955,6917.840999999999,95.437,540.945,538.4680000000002,0.0
53744.0,STARLINK-4670,PAYLOAD,2022-12-24 10:21:22,15.08849862,0.0001823,53.2179,122.0637,42.0104,318.1027,0.00020217,2.932e-05,0.0,0 STARLINK-4670,1 53744U 22107AW  22358.43150993  .00002932  00000-0  20217-3 0  9990,2 53744  53.2179 122.0637 0001823  42.0104 318.1027 15.08849862 17773,6917.85,95.437,540.976,538.4540000000002,0.0
53744.0,STARLINK-4670,PAYLOAD,2022-12-24 18:18:17,15.0885037,0.0001664,53.2178,120.5758,47.3752,312.738,0.00019298,2.785e-05,0.0,0 STARLINK-4670,1 53744U 22107AW  22358.76270763  .00002785  00000-0  19298-3 0  9997,2 53744  53.2178 120.5758 0001664  47.3752 312.7380 15.08850370 17823,6917.849,95.437,540.865,538.563,0.0
53744.0,STARLINK-4670,PAYLOAD,2022-12-25 03:50:36,15.08853132,0.0001723,53.2179,118.792,46.6656,313.448,0.00010981,1.461e-05,0.0,0 STARLINK-4670,1 53744U 22107AW  22359.16014284  .00001461  00000-0  10981-3 0  9996,2 53744  53.2179 118.7920 0001723  46.6656 313.4480 15.08853132 17104,6917.84,95.437,540.8969999999998,538.513,0.0
53744.0,STARLINK-4670,PAYLOAD,2022-12-25 10:12:09,15.08835012,0.0001696,53.2181,117.6031,45.39100000000001,314.7221,-0.00020693,-3.579e-05,0.0,0 STARLINK-4670,1 53744U 22107AW  22359.42511016 -.00003579  00000-0 -20693-3 0  9995,2 53744  53.2181 117.6031 0001696  45.3910 314.7221 15.08835012 17920,6917.896,95.438,540.934,538.587,0.0
53744.0,STARLINK-4670,PAYLOAD,2022-12-25 11:47:32,15.08835321,0.0001638,53.218,117.3041,47.941,312.1722,-0.00019823,-3.441e-05,0.0,0 STARLINK-4670,1 53744U 22107AW  22359.49134972 -.00003441  00000-0 -19823-3 0  9995,2 53744  53.2180 117.3041 0001638  47.9410 312.1722 15.08835321 17152,6917.895,95.438,540.893,538.627,0.0
53744.0,STARLINK-4670,PAYLOAD,2022-12-25 13:22:55,15.08835466,0.0001628,53.218,117.0069,49.3775,310.7358,-0.00019375,-3.37e-05,0.0,0 STARLINK-4670,1 53744U 22107AW  22359.55758954 -.00003370  00000-0 -19375-3 0  9997,2 53744  53.2180 117.0069 0001628  49.3775 310.7358 15.08835466 17944,6917.894,95.438,540.885,538.633,0.0
53744.0,STARLINK-4670,PAYLOAD,2022-12-26 08:27:33,15.08843313,0.000176,53.2178,113.4391,47.0952,313.0187,5.7187e-05,6.22e-06,0.0,0 STARLINK-4670,1 53744U 22107AW  22360.35246628  .00000622  00000-0  57187-4 0  9996,2 53744  53.2178 113.4391 0001760  47.0952 313.0187 15.08843313 17281,6917.87,95.437,540.953,538.518,0.0
53744.0,STARLINK-4670,PAYLOAD,2022-12-26 17:59:51,15.08844123,0.0001776999999999,53.2177,111.6553,47.508,312.6062,9.9448e-05,1.295e-05,0.0,0 STARLINK-4670,1 53744U 22107AW  22360.74990616  .00001295  00000-0  99448-4 0  9995,2 53744  53.2177 111.6553 0001777  47.5080 312.6062 15.08844123 18126,6917.868,95.437,540.962,538.503,0.0
53744.0,STARLINK-4670,PAYLOAD,2022-12-27 09:53:42,15.08856806,0.000184,53.218,108.681,50.0195,310.0959,0.0004123,6.283e-05,0.0,0 STARLINK-4670,1 53744U 22107AW  22361.41230019  .00006283  00000-0  41230-3 0  9991,2 53744  53.2180 108.6810 0001840  50.0195 310.0959 15.08856806 17441,6917.829000000002,95.436,540.967,538.4209999999998,0.0
53744.0,STARLINK-4670,PAYLOAD,2022-12-27 17:50:37,15.08867955,0.0001912,53.2178,107.1957,49.3358,310.78,0.00061747,9.56e-05,0.0,0 STARLINK-4670,1 53744U 22107AW  22361.74349533  .00009560  00000-0  61747-3 0  9995,2 53744  53.2178 107.1957 0001912  49.3358 310.7800 15.08867955 18277,6917.795,95.436,540.9830000000002,538.337,0.0
53744.0,STARLINK-4670,PAYLOAD,2022-12-28 09:44:29,15.08852982,0.0001763,53.2162,104.2207,57.3621,302.7542,5.6945e-05,6.19e-06,0.0,0 STARLINK-4670,1 53744U 22107AW  22362.40589197  .00000619  00000-0  56945-4 0  9992,2 53744  53.2162 104.2207 0001763  57.3621 302.7542 15.08852982 17594,6917.840999999999,95.437,540.925,538.486,0.0
53744.0,STARLINK-4670,PAYLOAD,2022-12-29 00:02:57,15.08832327,0.0001307,53.2204,101.5494,358.4678,1.631,-0.00039795,-6.614e-05,0.0,0 STARLINK-4670,1 53744U 22107AW  22363.00205462 -.00006614  00000-0 -39795-3 0  9995,2 53744  53.2204 101.5494 0001307 358.4678   1.6310 15.08832327 17689,6917.904,95.438,540.673,538.865,0.0
53744.0,STARLINK-4670,PAYLOAD,2022-12-29 12:46:03,15.08822589,0.000183,53.2183,99.1648,49.6457,310.4694,-0.00029057,-4.907e-05,0.0,0 STARLINK-4670,1 53744U 22107AW  22363.53198935 -.00004907  00000-0 -29057-3 0  9992,2 53744  53.2183  99.1648 0001830  49.6457 310.4694 15.08822589 17767,6917.934,95.439,541.065,538.533,0.0
53744.0,STARLINK-4670,PAYLOAD,2022-12-30 12:36:51,15.08839824,0.0001740999999999,53.2181,94.7056,44.0201,316.093,0.00048434,7.429e-05,0.0,0 STARLINK-4670,1 53744U 22107AW  22364.52559460  .00007429  00000-0  48434-3 0  9996,2 53744  53.2181  94.7056 0001741  44.0201 316.0930 15.08839824 17918,6917.880999999999,95.438,540.95,538.5419999999998,0.0
53744.0,STARLINK-4670,PAYLOAD,2022-12-30 15:47:38,15.08823246,0.0001797,53.2189,94.1105,48.1942,311.9203,0.00017912,2.563e-05,0.0,0 STARLINK-4670,1 53744U 22107AW  22364.65808414  .00002563  00000-0  17912-3 0  9997,2 53744  53.2189  94.1105 0001797  48.1942 311.9203 15.08823246 17933,6917.932,95.439,541.04,538.553,0.0
53744.0,STARLINK-4670,PAYLOAD,2022-12-31 06:06:06,15.08843315,0.0002420999999999,53.2178,91.4393,37.7736,322.3425,0.00042898,6.546e-05,0.0,0 STARLINK-4670,1 53744U 22107AW  22365.25424029  .00006546  00000-0  42898-3 0  9996,2 53744  53.2178  91.4393 0002421  37.7736 322.3425 15.08843315 18022,6917.87,95.437,541.41,538.06,0.0
53744.0,STARLINK-4670,PAYLOAD,2022-12-31 12:27:38,15.08864074,0.0001961,53.2173,90.2469,41.8656,318.2486,0.00073417,0.00011423,0.0,0 STARLINK-4670,1 53744U 22107AW  22365.51919140  .00011423  00000-0  73417-3 0  9999,2 53744  53.2173  90.2469 0001961  41.8656 318.2486 15.08864074 18063,6917.807,95.436,541.028,538.315,0.0
53744.0,STARLINK-4670,PAYLOAD,2022-12-31 15:38:24,15.08872672,0.0002052,53.2173,89.6518,43.353,316.7623,0.00098366,0.00015416,0.0,0 STARLINK-4670,1 53744U 22107AW  22365.65166977  .00015416  00000-0  98366-3 0  9992,2 53744  53.2173  89.6518 0002052  43.3530 316.7623 15.08872672 18867,6917.781,95.435,541.065,538.226,0.0
53744.0,STARLINK-4670,PAYLOAD,2023-01-01 05:56:53,15.08836819,0.0001672,53.2181,86.9749,43.1247,316.9876,-0.00020093,-3.484e-05,0.0,0 STARLINK-4670,1 53744U 22107AW  23001.24783599 -.00003484  00000-0 -20093-3 0  9996,2 53744  53.2181  86.9749 0001672  43.1247 316.9876 15.08836819 18171,6917.89,95.438,540.9119999999998,538.5980000000002,0.0
53744.0,STARLINK-4670,PAYLOAD,2023-01-01 13:53:49,15.08828904,0.00018,53.2184,85.4883,51.6212,308.4942,-5.423899999999999e-05,-1.151e-05,0.0,0 STARLINK-4670,1 53744U 22107AW  23001.57904071 -.00001151  00000-0 -54239-4 0  9991,2 53744  53.2184  85.4883 0001800  51.6212 308.4942 15.08828904 19005,6917.9140000000025,95.438,541.025,538.534,0.0
53744.0,STARLINK-4670,PAYLOAD,2023-01-01 21:50:45,15.0882788,0.000185,53.2185,84.0018,52.7731,307.343,-5.4928e-05,-1.162e-05,0.0,0 STARLINK-4670,1 53744U 22107AW  23001.91024487 -.00001162  00000-0 -54928-4 0  9990,2 53744  53.2185  84.0018 0001850  52.7731 307.3430 15.08827880 19051,6917.917,95.438,541.062,538.503,0.0
53744.0,STARLINK-4670,PAYLOAD,2023-01-02 12:09:13,15.08840436,0.0001811999999999,53.2183,81.3259,54.81,305.3062,0.00032138,4.83e-05,0.0,0 STARLINK-4670,1 53744U 22107AW  23002.50640603  .00004830  00000-0  32138-3 0  9991,2 53744  53.2183  81.3259 0001812  54.8100 305.3062 15.08840436 18361,6917.879,95.438,540.998,538.491,0.0
53744.0,STARLINK-4670,PAYLOAD,2023-01-02 21:41:32,15.08836166,0.0001785,53.2182,79.5422,54.7751,305.3408,0.00029418,4.396e-05,0.0,0 STARLINK-4670,1 53744U 22107AW  23002.90384975  .00004396  00000-0  29418-3 0  9996,2 53744  53.2182  79.5422 0001785  54.7751 305.3408 15.08836166 19204,6917.892,95.438,540.992,538.5219999999998,0.0
53744.0,STARLINK-4670,PAYLOAD,2023-01-03 05:38:28,15.08833191,0.000177,53.218,78.0556,56.3949,303.7211,0.00024054,3.542e-05,0.0,0 STARLINK-4670,1 53744U 22107AW  23003.23505278  .00003542  00000-0  24054-3 0  9997,2 53744  53.2180  78.0556 0001770  56.3949 303.7211 15.08833191 18472,6917.901,95.438,540.991,538.5419999999998,0.0
53744.0,STARLINK-4670,PAYLOAD,2023-01-03 12:00:00,15.08839742,0.0001737,53.219,76.8673,58.3256,301.7905,0.00030566,4.58e-05,0.0,0 STARLINK-4670,1 53744U 22107AW  23003.50001105  .00004580  00000-0  30566-3 0  9995,2 53744  53.2190  76.8673 0001737  58.3256 301.7905 15.08839742 19292,6917.880999999999,95.438,540.948,538.545,0.0
53744.0,STARLINK-4670,PAYLOAD,2023-01-04 10:15:24,15.08846374,0.0001612,53.2191,72.7052,47.923,312.1899,0.00022092,3.2299999999999986e-05,0.0,0 STARLINK-4670,1 53744U 22107AW  23004.42736923  .00003230  00000-0  22092-3 0  9996,2 53744  53.2191  72.7052 0001612  47.9230 312.1899 15.08846374 19430,6917.861,95.437,540.841,538.611,0.0
